{
  "type": "FeatureCollection",
  "features": [
    {
      "type": "Feature",
      "properties": {
        "norad_id": 37238,
        "name": "INTELSAT 17 (IS-17)",
        "group": "intelsat",
        "lat": -0.0068763870914421,
        "lon": -65.14597718385234,
        "alt_km": 35777.23772589136,
        "timestamp": "2025-12-10T09:57:44.372055+00:00",
        "meta_object_name": "INTELSAT 17 (IS-17)",
        "meta_object_id": "2010-065B",
        "meta_epoch": "2025-12-10T00:45:38.639808",
        "meta_mean_motion": 1.00272545,
        "meta_eccentricity": 0.0002437,
        "meta_inclination": 0.0135,
        "meta_ra_of_asc_node": 288.0536,
        "meta_arg_of_pericenter": 333.432,
        "meta_mean_anomaly": 254.9533,
        "meta_ephemeris_type": 0,
        "meta_classification_type": "U",
        "meta_norad_cat_id": 37238,
        "meta_element_set_no": 999,
        "meta_rev_at_epoch": 5135,
        "meta_bstar": 0,
        "meta_mean_motion_dot": 1e-08,
        "meta_mean_motion_ddot": 0,
        "tle_line1": "1 37238U 10065B   25344.03169722  .00000001  00000+0  00000+0 0  9992",
        "tle_line2": "2 37238   0.0135 288.0536 0002437 333.4320 254.9533  1.00272545 51351"
      },
      "geometry": {
        "type": "Point",
        "coordinates": [
          -65.14597718385234,
          -0.0068763870914421
        ]
      }
    },
    {
      "type": "Feature",
      "properties": {
        "norad_id": 37392,
        "name": "INTELSAT 28 (IS-28)",
        "group": "intelsat",
        "lat": 1.2118773556284945,
        "lon": -162.90974201907977,
        "alt_km": 35779.13547965128,
        "timestamp": "2025-12-10T09:57:44.372066+00:00",
        "meta_object_name": "INTELSAT 28 (IS-28)",
        "meta_object_id": "2011-016A",
        "meta_epoch": "2025-12-09T20:16:17.404896",
        "meta_mean_motion": 1.00272229,
        "meta_eccentricity": 0.0003962,
        "meta_inclination": 1.3173,
        "meta_ra_of_asc_node": 85.0894,
        "meta_arg_of_pericenter": 178.4571,
        "meta_mean_anomaly": 87.656,
        "meta_ephemeris_type": 0,
        "meta_classification_type": "U",
        "meta_norad_cat_id": 37392,
        "meta_element_set_no": 999,
        "meta_rev_at_epoch": 5138,
        "meta_bstar": 0,
        "meta_mean_motion_dot": -2.22e-06,
        "meta_mean_motion_ddot": 0,
        "tle_line1": "1 37392U 11016A   25343.84464589 -.00000222  00000+0  00000+0 0  9993",
        "tle_line2": "2 37392   1.3173  85.0894 0003962 178.4571  87.6560  1.00272229 51382"
      },
      "geometry": {
        "type": "Point",
        "coordinates": [
          -162.90974201907977,
          1.2118773556284945
        ]
      }
    },
    {
      "type": "Feature",
      "properties": {
        "norad_id": 37834,
        "name": "INTELSAT 18 (IS-18)",
        "group": "intelsat",
        "lat": 0.03311670667559223,
        "lon": 48.833067139775295,
        "alt_km": 35793.078757975294,
        "timestamp": "2025-12-10T09:57:44.372078+00:00",
        "meta_object_name": "INTELSAT 18 (IS-18)",
        "meta_object_id": "2011-056A",
        "meta_epoch": "2025-12-09T19:33:58.959072",
        "meta_mean_motion": 1.00271499,
        "meta_eccentricity": 0.0002062,
        "meta_inclination": 0.0181,
        "meta_ra_of_asc_node": 348.2925,
        "meta_arg_of_pericenter": 277.6414,
        "meta_mean_anomaly": 286.358,
        "meta_ephemeris_type": 0,
        "meta_classification_type": "U",
        "meta_norad_cat_id": 37834,
        "meta_element_set_no": 999,
        "meta_rev_at_epoch": 5191,
        "meta_bstar": 0,
        "meta_mean_motion_dot": 5.5e-07,
        "meta_mean_motion_ddot": 0,
        "tle_line1": "1 37834U 11056A   25343.81526573  .00000055  00000+0  00000+0 0  9990",
        "tle_line2": "2 37834   0.0181 348.2925 0002062 277.6414 286.3580  1.00271499 51912"
      },
      "geometry": {
        "type": "Point",
        "coordinates": [
          48.833067139775295,
          0.03311670667559223
        ]
      }
    },
    {
      "type": "Feature",
      "properties": {
        "norad_id": 38098,
        "name": "INTELSAT 22 (IS-22)",
        "group": "intelsat",
        "lat": -0.01045581636378928,
        "lon": -59.036684951776124,
        "alt_km": 35779.87138016638,
        "timestamp": "2025-12-10T09:57:44.372091+00:00",
        "meta_object_name": "INTELSAT 22 (IS-22)",
        "meta_object_id": "2012-011A",
        "meta_epoch": "2025-12-10T00:45:38.639808",
        "meta_mean_motion": 1.00274467,
        "meta_eccentricity": 0.0001575,
        "meta_inclination": 0.0142,
        "meta_ra_of_asc_node": 308.9114,
        "meta_arg_of_pericenter": 317.022,
        "meta_mean_anomaly": 256.6172,
        "meta_ephemeris_type": 0,
        "meta_classification_type": "U",
        "meta_norad_cat_id": 38098,
        "meta_element_set_no": 999,
        "meta_rev_at_epoch": 529,
        "meta_bstar": 0,
        "meta_mean_motion_dot": -5.6e-07,
        "meta_mean_motion_ddot": 0,
        "tle_line1": "1 38098U 12011A   25344.03169722 -.00000056  00000+0  00000+0 0  9991",
        "tle_line2": "2 38098   0.0142 308.9114 0001575 317.0220 256.6172  1.00274467  5292"
      },
      "geometry": {
        "type": "Point",
        "coordinates": [
          -59.036684951776124,
          -0.01045581636378928
        ]
      }
    },
    {
      "type": "Feature",
      "properties": {
        "norad_id": 38356,
        "name": "INTELSAT 19 (IS-19)",
        "group": "intelsat",
        "lat": 0.021705844601096706,
        "lon": 34.86032594051113,
        "alt_km": 35795.285663224924,
        "timestamp": "2025-12-10T09:57:44.372102+00:00",
        "meta_object_name": "INTELSAT 19 (IS-19)",
        "meta_object_id": "2012-030A",
        "meta_epoch": "2025-12-09T21:12:19.534752",
        "meta_mean_motion": 1.00271817,
        "meta_eccentricity": 0.0003518,
        "meta_inclination": 0.0084,
        "meta_ra_of_asc_node": 344.1124,
        "meta_arg_of_pericenter": 282.521,
        "meta_mean_anomaly": 296.3208,
        "meta_ephemeris_type": 0,
        "meta_classification_type": "U",
        "meta_norad_cat_id": 38356,
        "meta_element_set_no": 999,
        "meta_rev_at_epoch": 4855,
        "meta_bstar": 0,
        "meta_mean_motion_dot": -5.3e-07,
        "meta_mean_motion_ddot": 0,
        "tle_line1": "1 38356U 12030A   25343.88355943 -.00000053  00000+0  00000+0 0  9990",
        "tle_line2": "2 38356   0.0084 344.1124 0003518 282.5210 296.3208  1.00271817 48554"
      },
      "geometry": {
        "type": "Point",
        "coordinates": [
          34.86032594051113,
          0.021705844601096706
        ]
      }
    },
    {
      "type": "Feature",
      "properties": {
        "norad_id": 38740,
        "name": "INTELSAT 20 (IS-20)",
        "group": "intelsat",
        "lat": -0.0025653502393760325,
        "lon": -62.63871395776124,
        "alt_km": 35790.49588133577,
        "timestamp": "2025-12-10T09:57:44.372114+00:00",
        "meta_object_name": "INTELSAT 20 (IS-20)",
        "meta_object_id": "2012-043A",
        "meta_epoch": "2025-12-10T00:45:38.639808",
        "meta_mean_motion": 1.00270927,
        "meta_eccentricity": 0.0002734,
        "meta_inclination": 0.0094,
        "meta_ra_of_asc_node": 92.4172,
        "meta_arg_of_pericenter": 93.433,
        "meta_mean_anomaly": 333.0845,
        "meta_ephemeris_type": 0,
        "meta_classification_type": "U",
        "meta_norad_cat_id": 38740,
        "meta_element_set_no": 999,
        "meta_rev_at_epoch": 4885,
        "meta_bstar": 0,
        "meta_mean_motion_dot": -2.1e-07,
        "meta_mean_motion_ddot": 0,
        "tle_line1": "1 38740U 12043A   25344.03169722 -.00000021  00000+0  00000+0 0  9992",
        "tle_line2": "2 38740   0.0094  92.4172 0002734  93.4330 333.0845  1.00270927 48859"
      },
      "geometry": {
        "type": "Point",
        "coordinates": [
          -62.63871395776124,
          -0.0025653502393760325
        ]
      }
    },
    {
      "type": "Feature",
      "properties": {
        "norad_id": 38749,
        "name": "INTELSAT 21 (IS-21)",
        "group": "intelsat",
        "lat": 0.01101416970586909,
        "lon": 170.796373401822,
        "alt_km": 35785.947630533745,
        "timestamp": "2025-12-10T09:57:44.372127+00:00",
        "meta_object_name": "INTELSAT 21 (IS-21)",
        "meta_object_id": "2012-045A",
        "meta_epoch": "2025-12-10T03:59:38.770080",
        "meta_mean_motion": 1.00270223,
        "meta_eccentricity": 0.0002123,
        "meta_inclination": 0.0158,
        "meta_ra_of_asc_node": 47.3107,
        "meta_arg_of_pericenter": 209.6362,
        "meta_mean_anomaly": 184.11,
        "meta_ephemeris_type": 0,
        "meta_classification_type": "U",
        "meta_norad_cat_id": 38749,
        "meta_element_set_no": 999,
        "meta_rev_at_epoch": 4862,
        "meta_bstar": 0,
        "meta_mean_motion_dot": -2.82e-06,
        "meta_mean_motion_ddot": 0,
        "tle_line1": "1 38749U 12045A   25344.16642095 -.00000282  00000+0  00000+0 0  9995",
        "tle_line2": "2 38749   0.0158  47.3107 0002123 209.6362 184.1100  1.00270223 48627"
      },
      "geometry": {
        "type": "Point",
        "coordinates": [
          170.796373401822,
          0.01101416970586909
        ]
      }
    }
  ]
}